[{"OBJECT_NAME":"STARLINK-35383","OBJECT_ID":"2025-218C","EPOCH":"2026-03-09T15:04:32.193696","MEAN_MOTION":15.05658147,"ECCENTRICITY":0.0002724,"INCLINATION":97.6021,"RA_OF_ASC_NODE":292.9417,"ARG_OF_PERICENTER":84.2925,"MEAN_ANOMALY":275.8613,"EPHEMERIS_TYPE":0,"CLASSIFICATION_TYPE":"U","NORAD_CAT_ID":65793,"ELEMENT_SET_NO":999,"REV_AT_EPOCH":2496,"BSTAR":0.00050948,"MEAN_MOTION_DOT":7.3e-5,"MEAN_MOTION_DDOT":0},{"OBJECT_NAME":"COSMOS 2251 DEB","OBJECT_ID":"1993-036BWC","EPOCH":"2026-03-01T08:05:57.545376","MEAN_MOTION":14.97612795,"ECCENTRICITY":0.01162666,"INCLINATION":73.926,"RA_OF_ASC_NODE":298.2127,"ARG_OF_PERICENTER":162.8882,"MEAN_ANOMALY":197.6278,"EPHEMERIS_TYPE":0,"CLASSIFICATION_TYPE":"U","NORAD_CAT_ID":40799,"ELEMENT_SET_NO":999,"REV_AT_EPOCH":51153,"BSTAR":0.00042095283,"MEAN_MOTION_DOT":5.616e-5,"MEAN_MOTION_DDOT":0}]
